[{"OBJECT_NAME":"ONEWEB-0358","OBJECT_ID":"2021-090F","EPOCH":"2025-07-27T15:19:11.793216","MEAN_MOTION":13.20771521,"ECCENTRICITY":0.0001766,"INCLINATION":87.9288,"RA_OF_ASC_NODE":339.0882,"ARG_OF_PERICENTER":102.0009,"MEAN_ANOMALY":258.1322,"EPHEMERIS_TYPE":0,"CLASSIFICATION_TYPE":"U","NORAD_CAT_ID":49284,"ELEMENT_SET_NO":999,"REV_AT_EPOCH":18771,"BSTAR":6.9997e-5,"MEAN_MOTION_DOT":4.1e-7,"MEAN_MOTION_DDOT":0},{"OBJECT_NAME":"ONEWEB-0359","OBJECT_ID":"2021-090G","EPOCH":"2025-07-27T15:14:37.975200","MEAN_MOTION":13.20770007,"ECCENTRICITY":0.0001496,"INCLINATION":87.9281,"RA_OF_ASC_NODE":339.1006,"ARG_OF_PERICENTER":101.3833,"MEAN_ANOMALY":258.7468,"EPHEMERIS_TYPE":0,"CLASSIFICATION_TYPE":"U","NORAD_CAT_ID":49285,"ELEMENT_SET_NO":999,"REV_AT_EPOCH":18769,"BSTAR":0.00012303,"MEAN_MOTION_DOT":6.3e-7,"MEAN_MOTION_DDOT":0},{"OBJECT_NAME":"ONEWEB-0360","OBJECT_ID":"2021-090H","EPOCH":"2025-07-27T20:28:14.459232","MEAN_MOTION":13.20769304,"ECCENTRICITY":0.0001713,"INCLINATION":87.929,"RA_OF_ASC_NODE":339.0649,"ARG_OF_PERICENTER":97.7603,"MEAN_ANOMALY":262.3725,"EPHEMERIS_TYPE":0,"CLASSIFICATION_TYPE":"U","NORAD_CAT_ID":49286,"ELEMENT_SET_NO":999,"REV_AT_EPOCH":18832,"BSTAR":8.8639e-5,"MEAN_MOTION_DOT":4.9e-7,"MEAN_MOTION_DDOT":0},{"OBJECT_NAME":"ONEWEB-0361","OBJECT_ID":"2021-090J","EPOCH":"2025-07-27T20:01:00.656832","MEAN_MOTION":13.20770994,"ECCENTRICITY":0.0001927,"INCLINATION":87.9287,"RA_OF_ASC_NODE":339.0635,"ARG_OF_PERICENTER":103.3531,"MEAN_ANOMALY":256.7817,"EPHEMERIS_TYPE":0,"CLASSIFICATION_TYPE":"U","NORAD_CAT_ID":49287,"ELEMENT_SET_NO":999,"REV_AT_EPOCH":18831,"BSTAR":-9.3484e-5,"MEAN_MOTION_DOT":-2.5e-7,"MEAN_MOTION_DDOT":0},{"OBJECT_NAME":"ONEWEB-0362","OBJECT_ID":"2021-090K","EPOCH":"2025-07-27T10:53:37.886208","MEAN_MOTION":13.19725443,"ECCENTRICITY":0.0001783,"INCLINATION":87.9228,"RA_OF_ASC_NODE":9.5421,"ARG_OF_PERICENTER":87.0487,"MEAN_ANOMALY":273.085,"EPHEMERIS_TYPE":0,"CLASSIFICATION_TYPE":"U","NORAD_CAT_ID":49288,"ELEMENT_SET_NO":999,"REV_AT_EPOCH":18408,"BSTAR":5.6263e-5,"MEAN_MOTION_DOT":3.5e-7,"MEAN_MOTION_DDOT":0},{"OBJECT_NAME":"ONEWEB-0363","OBJECT_ID":"2021-090L","EPOCH":"2025-07-27T14:56:28.402080","MEAN_MOTION":13.20770792,"ECCENTRICITY":0.0001931,"INCLINATION":87.9288,"RA_OF_ASC_NODE":339.1011,"ARG_OF_PERICENTER":110.16,"MEAN_ANOMALY":249.9741,"EPHEMERIS_TYPE":0,"CLASSIFICATION_TYPE":"U","NORAD_CAT_ID":49289,"ELEMENT_SET_NO":999,"REV_AT_EPOCH":18746,"BSTAR":0.00027954,"MEAN_MOTION_DOT":1.27e-6,"MEAN_MOTION_DDOT":0},{"OBJECT_NAME":"ONEWEB-0364","OBJECT_ID":"2021-090M","EPOCH":"2025-07-27T21:18:17.083008","MEAN_MOTION":13.20772228,"ECCENTRICITY":0.000196,"INCLINATION":87.9286,"RA_OF_ASC_NODE":339.0776,"ARG_OF_PERICENTER":102.103,"MEAN_ANOMALY":258.0323,"EPHEMERIS_TYPE":0,"CLASSIFICATION_TYPE":"U","NORAD_CAT_ID":49290,"ELEMENT_SET_NO":999,"REV_AT_EPOCH":18945,"BSTAR":-0.00018704,"MEAN_MOTION_DOT":-6.3e-7,"MEAN_MOTION_DDOT":0},{"OBJECT_NAME":"ONEWEB-0365","OBJECT_ID":"2021-090N","EPOCH":"2025-07-27T11:07:16.676544","MEAN_MOTION":13.19725625,"ECCENTRICITY":0.0001913,"INCLINATION":87.9227,"RA_OF_ASC_NODE":9.4947,"ARG_OF_PERICENTER":90.5349,"MEAN_ANOMALY":269.6003,"EPHEMERIS_TYPE":0,"CLASSIFICATION_TYPE":"U","NORAD_CAT_ID":49291,"ELEMENT_SET_NO":999,"REV_AT_EPOCH":18359,"BSTAR":0.00020534,"MEAN_MOTION_DOT":9.5e-7,"MEAN_MOTION_DDOT":0},{"OBJECT_NAME":"ONEWEB-0366","OBJECT_ID":"2021-090P","EPOCH":"2025-07-27T09:54:38.654496","MEAN_MOTION":13.14503542,"ECCENTRICITY":0.0001788,"INCLINATION":87.9066,"RA_OF_ASC_NODE":354.3431,"ARG_OF_PERICENTER":97.9727,"MEAN_ANOMALY":262.1606,"EPHEMERIS_TYPE":0,"CLASSIFICATION_TYPE":"U","NORAD_CAT_ID":49292,"ELEMENT_SET_NO":999,"REV_AT_EPOCH":18489,"BSTAR":0.00012064,"MEAN_MOTION_DOT":5.8e-7,"MEAN_MOTION_DDOT":0},{"OBJECT_NAME":"ONEWEB-0367","OBJECT_ID":"2021-090Q","EPOCH":"2025-07-27T20:21:27.961056","MEAN_MOTION":13.20770519,"ECCENTRICITY":0.0001873,"INCLINATION":87.9287,"RA_OF_ASC_NODE":339.0516,"ARG_OF_PERICENTER":91.8817,"MEAN_ANOMALY":268.2531,"EPHEMERIS_TYPE":0,"CLASSIFICATION_TYPE":"U","NORAD_CAT_ID":49293,"ELEMENT_SET_NO":999,"REV_AT_EPOCH":18831,"BSTAR":2.0857e-5,"MEAN_MOTION_DOT":2.1e-7,"MEAN_MOTION_DDOT":0},{"OBJECT_NAME":"ONEWEB-0368","OBJECT_ID":"2021-090R","EPOCH":"2025-07-27T08:48:16.019712","MEAN_MOTION":13.20771079,"ECCENTRICITY":0.0002677,"INCLINATION":87.9296,"RA_OF_ASC_NODE":339.1817,"ARG_OF_PERICENTER":105.1383,"MEAN_ANOMALY":255.0047,"EPHEMERIS_TYPE":0,"CLASSIFICATION_TYPE":"U","NORAD_CAT_ID":49294,"ELEMENT_SET_NO":999,"REV_AT_EPOCH":18810,"BSTAR":0.00010965,"MEAN_MOTION_DOT":5.8e-7,"MEAN_MOTION_DDOT":0},{"OBJECT_NAME":"ONEWEB-0369","OBJECT_ID":"2021-090S","EPOCH":"2025-07-27T11:00:26.419968","MEAN_MOTION":13.19724584,"ECCENTRICITY":0.0001906,"INCLINATION":87.9232,"RA_OF_ASC_NODE":9.5263,"ARG_OF_PERICENTER":92.3312,"MEAN_ANOMALY":267.8039,"EPHEMERIS_TYPE":0,"CLASSIFICATION_TYPE":"U","NORAD_CAT_ID":49295,"ELEMENT_SET_NO":999,"REV_AT_EPOCH":18358,"BSTAR":0.00014301,"MEAN_MOTION_DOT":7.0e-7,"MEAN_MOTION_DDOT":0},{"OBJECT_NAME":"ONEWEB-0370","OBJECT_ID":"2021-090T","EPOCH":"2025-07-27T15:07:50.137824","MEAN_MOTION":13.20770641,"ECCENTRICITY":0.0001612,"INCLINATION":87.9294,"RA_OF_ASC_NODE":339.1009,"ARG_OF_PERICENTER":91.195,"MEAN_ANOMALY":268.9368,"EPHEMERIS_TYPE":0,"CLASSIFICATION_TYPE":"U","NORAD_CAT_ID":49296,"ELEMENT_SET_NO":999,"REV_AT_EPOCH":18702,"BSTAR":0.00017237,"MEAN_MOTION_DOT":8.3e-7,"MEAN_MOTION_DDOT":0},{"OBJECT_NAME":"ONEWEB-0371","OBJECT_ID":"2021-090U","EPOCH":"2025-07-27T11:11:49.033536","MEAN_MOTION":13.19725999,"ECCENTRICITY":0.000185,"INCLINATION":87.9232,"RA_OF_ASC_NODE":9.5145,"ARG_OF_PERICENTER":89.2698,"MEAN_ANOMALY":270.8647,"EPHEMERIS_TYPE":0,"CLASSIFICATION_TYPE":"U","NORAD_CAT_ID":49297,"ELEMENT_SET_NO":999,"REV_AT_EPOCH":18362,"BSTAR":0.00014055,"MEAN_MOTION_DOT":6.9e-7,"MEAN_MOTION_DDOT":0},{"OBJECT_NAME":"ONEWEB-0372","OBJECT_ID":"2021-090V","EPOCH":"2025-07-27T20:19:00.312960","MEAN_MOTION":13.2077128,"ECCENTRICITY":0.000201,"INCLINATION":87.9283,"RA_OF_ASC_NODE":339.0659,"ARG_OF_PERICENTER":96.2559,"MEAN_ANOMALY":263.8803,"EPHEMERIS_TYPE":0,"CLASSIFICATION_TYPE":"U","NORAD_CAT_ID":49298,"ELEMENT_SET_NO":999,"REV_AT_EPOCH":18832,"BSTAR":8.5088e-5,"MEAN_MOTION_DOT":4.8e-7,"MEAN_MOTION_DDOT":0},{"OBJECT_NAME":"ONEWEB-0373","OBJECT_ID":"2021-090W","EPOCH":"2025-07-27T10:03:15.901920","MEAN_MOTION":13.20769583,"ECCENTRICITY":0.0001794,"INCLINATION":87.9285,"RA_OF_ASC_NODE":339.1619,"ARG_OF_PERICENTER":99.9058,"MEAN_ANOMALY":260.2278,"EPHEMERIS_TYPE":0,"CLASSIFICATION_TYPE":"U","NORAD_CAT_ID":49299,"ELEMENT_SET_NO":999,"REV_AT_EPOCH":18815,"BSTAR":-0.00028576,"MEAN_MOTION_DOT":-1.03e-6,"MEAN_MOTION_DDOT":0},{"OBJECT_NAME":"ONEWEB-0374","OBJECT_ID":"2021-090X","EPOCH":"2025-07-27T09:36:22.896864","MEAN_MOTION":13.14501866,"ECCENTRICITY":0.0002141,"INCLINATION":87.9059,"RA_OF_ASC_NODE":354.3253,"ARG_OF_PERICENTER":111.0227,"MEAN_ANOMALY":249.1131,"EPHEMERIS_TYPE":0,"CLASSIFICATION_TYPE":"U","NORAD_CAT_ID":49300,"ELEMENT_SET_NO":999,"REV_AT_EPOCH":18489,"BSTAR":0.0006916,"MEAN_MOTION_DOT":2.69e-6,"MEAN_MOTION_DDOT":0}]
