ONEWEB-0358             
1 49284U 21090F   25208.63833094  .00000041  00000+0  69997-4 0  9990
2 49284  87.9288 339.0882 0001766 102.0009 258.1322 13.20771521187712
ONEWEB-0359             
1 49285U 21090G   25208.63516175  .00000063  00000+0  12303-3 0  9991
2 49285  87.9281 339.1006 0001496 101.3833 258.7468 13.20770007187694
ONEWEB-0360             
1 49286U 21090H   25208.85294513  .00000049  00000+0  88639-4 0  9995
2 49286  87.9290 339.0649 0001713  97.7603 262.3725 13.20769304188328
ONEWEB-0361             
1 49287U 21090J   25208.83403538 -.00000025  00000+0 -93484-4 0  9993
2 49287  87.9287 339.0635 0001927 103.3531 256.7817 13.20770994188316
ONEWEB-0362             
1 49288U 21090K   25208.45391072  .00000035  00000+0  56263-4 0  9994
2 49288  87.9228   9.5421 0001783  87.0487 273.0850 13.19725443184088
ONEWEB-0363             
1 49289U 21090L   25208.62255095  .00000127  00000+0  27954-3 0  9994
2 49289  87.9288 339.1011 0001931 110.1600 249.9741 13.20770792187467
ONEWEB-0364             
1 49290U 21090M   25208.88769772 -.00000063  00000+0 -18704-3 0  9990
2 49290  87.9286 339.0776 0001960 102.1030 258.0323 13.20772228189458
ONEWEB-0365             
1 49291U 21090N   25208.46338746  .00000095  00000+0  20534-3 0  9995
2 49291  87.9227   9.4947 0001913  90.5349 269.6003 13.19725625183592
ONEWEB-0366             
1 49292U 21090P   25208.41294739  .00000058  00000+0  12064-3 0  9992
2 49292  87.9066 354.3431 0001788  97.9727 262.1606 13.14503542184893
ONEWEB-0367             
1 49293U 21090Q   25208.84824029  .00000021  00000+0  20857-4 0  9991
2 49293  87.9287 339.0516 0001873  91.8817 268.2531 13.20770519188313
ONEWEB-0368             
1 49294U 21090R   25208.36685208  .00000058  00000+0  10965-3 0  9991
2 49294  87.9296 339.1817 0002677 105.1383 255.0047 13.20771079188104
ONEWEB-0369             
1 49295U 21090S   25208.45863912  .00000070  00000+0  14301-3 0  9994
2 49295  87.9232   9.5263 0001906  92.3312 267.8039 13.19724584183587
ONEWEB-0370             
1 49296U 21090T   25208.63044141  .00000083  00000+0  17237-3 0  9995
2 49296  87.9294 339.1009 0001612  91.1950 268.9368 13.20770641187022
ONEWEB-0371             
1 49297U 21090U   25208.46653974  .00000069  00000+0  14055-3 0  9996
2 49297  87.9232   9.5145 0001850  89.2698 270.8647 13.19725999183623
ONEWEB-0372             
1 49298U 21090V   25208.84653140  .00000048  00000+0  85088-4 0  9996
2 49298  87.9283 339.0659 0002010  96.2559 263.8803 13.20771280188328
ONEWEB-0373             
1 49299U 21090W   25208.41893405 -.00000103  00000+0 -28576-3 0  9992
2 49299  87.9285 339.1619 0001794  99.9058 260.2278 13.20769583188151
ONEWEB-0374             
1 49300U 21090X   25208.40026501  .00000269  00000+0  69160-3 0  9994
2 49300  87.9059 354.3253 0002141 111.0227 249.1131 13.14501866184899
